{"type": "FeatureCollection", "features": [ {"type": "Feature", "properties": {"norad_id": 66926, "name": "STARLINK-35942", "group": "last-30-days", "lat": 8.079416007333078, "lon": -158.10453660028364, "alt_km": 311.9387381695633, "timestamp": "2025-12-17T04:57:43.205336+00:00", "meta": {"OBJECT_NAME": "STARLINK-35942", "OBJECT_ID": "2025-286B", "EPOCH": "2025-12-16T22:00:03.000096", "MEAN_MOTION": 15.87188404, "ECCENTRICITY": 6.534e-05, "INCLINATION": 53.1569, "RA_OF_ASC_NODE": 29.4726, "ARG_OF_PERICENTER": 95.7804, "MEAN_ANOMALY": 216.1152, "EPHEMERIS_TYPE": 0, "CLASSIFICATION_TYPE": "U", "NORAD_CAT_ID": 66926, "ELEMENT_SET_NO": 999, "REV_AT_EPOCH": 266, "BSTAR": -0.0049849335, "MEAN_MOTION_DOT": -0.01187357, "MEAN_MOTION_DDOT": 0}, "tle": {"line1": "1 66926U 25286B   25350.91670139 -.01187357  00000+0 -49849-2 0  9992", "line2": "2 66926  53.1569  29.4726 0000653  95.7804 216.1152 15.87188404  2665"}}, "geometry": {"type": "Point", "coordinates": [-158.10453660028364, 8.079416007333078]}}, {"type": "Feature", "properties": {"norad_id": 66927, "name": "STARLINK-35943", "group": "last-30-days", "lat": 6.480518337877501, "lon": -156.88419656502538, "alt_km": 312.1784475503937, "timestamp": "2025-12-17T04:57:43.205345+00:00", "meta": {"OBJECT_NAME": "STARLINK-35943", "OBJECT_ID": "2025-286C", "EPOCH": "2025-12-16T22:00:03.000096", "MEAN_MOTION": 15.87225878, "ECCENTRICITY": 6.548e-05, "INCLINATION": 53.157, "RA_OF_ASC_NODE": 29.4688, "ARG_OF_PERICENTER": 87.6292, "MEAN_ANOMALY": 226.2367, "EPHEMERIS_TYPE": 0, "CLASSIFICATION_TYPE": "U", "NORAD_CAT_ID": 66927, "ELEMENT_SET_NO": 999, "REV_AT_EPOCH": 266, "BSTAR": -0.0050164241, "MEAN_MOTION_DOT": -0.01196041, "MEAN_MOTION_DDOT": 0}, "tle": {"line1": "1 66927U 25286C   25350.91670139 -.01196041  00000+0 -50164-2 0  9995", "line2": "2 66927  53.1570  29.4688 0000654  87.6292 226.2367 15.87225878  2664"}}, "geometry": {"type": "Point", "coordinates": [-156.88419656502538, 6.480518337877501]}}, {"type": "Feature", "properties": {"norad_id": 66928, "name": "STARLINK-35944", "group": "last-30-days", "lat": 9.706136174912833, "lon": -159.3585658898397, "alt_km": 311.83476256526774, "timestamp": "2025-12-17T04:57:43.205354+00:00", "meta": {"OBJECT_NAME": "STARLINK-35944", "OBJECT_ID": "2025-286D", "EPOCH": "2025-12-16T22:00:03.000096", "MEAN_MOTION": 15.87159776, "ECCENTRICITY": 5.979e-05, "INCLINATION": 53.157, "RA_OF_ASC_NODE": 29.4769, "ARG_OF_PERICENTER": 89.5166, "MEAN_ANOMALY": 220.364, "EPHEMERIS_TYPE": 0, "CLASSIFICATION_TYPE": "U", "NORAD_CAT_ID": 66928, "ELEMENT_SET_NO": 999, "REV_AT_EPOCH": 266, "BSTAR": -0.0050057937, "MEAN_MOTION_DOT": -0.01190248, "MEAN_MOTION_DDOT": 0}, "tle": {"line1": "1 66928U 25286D   25350.91670139 -.01190248  00000+0 -50058-2 0  9991", "line2": "2 66928  53.1570  29.4769 0000597  89.5166 220.3640 15.87159776  2664"}}, "geometry": {"type": "Point", "coordinates": [-159.3585658898397, 9.706136174912833]}}, {"type": "Feature", "properties": {"norad_id": 66929, "name": "STARLINK-36169", "group": "last-30-days", "lat": 4.740848096745279, "lon": -155.56821285956525, "alt_km": 312.51174985743637, "timestamp": "2025-12-17T04:57:43.205365+00:00", "meta": {"OBJECT_NAME": "STARLINK-36169", "OBJECT_ID": "2025-286E", "EPOCH": "2025-12-16T22:00:03.000096", "MEAN_MOTION": 15.87261343, "ECCENTRICITY": 7.203e-05, "INCLINATION": 53.157, "RA_OF_ASC_NODE": 29.4641, "ARG_OF_PERICENTER": 74.4115, "MEAN_ANOMALY": 241.5999, "EPHEMERIS_TYPE": 0, "CLASSIFICATION_TYPE": "U", "NORAD_CAT_ID": 66929, "ELEMENT_SET_NO": 999, "REV_AT_EPOCH": 266, "BSTAR": -0.005057685, "MEAN_MOTION_DOT": -0.01206744, "MEAN_MOTION_DDOT": 0}, "tle": {"line1": "1 66929U 25286E   25350.91670139 -.01206744  00000+0 -50577-2 0  9997", "line2": "2 66929  53.1570  29.4641 0000720  74.4115 241.5999 15.87261343  2665"}}, "geometry": {"type": "Point", "coordinates": [-155.56821285956525, 4.740848096745279]}}, {"type": "Feature", "properties": {"norad_id": 66930, "name": "STARLINK-36206", "group": "last-30-days", "lat": 3.1740585518158797, "lon": -154.39037602202114, "alt_km": 312.53467531109436, "timestamp": "2025-12-17T04:57:43.205374+00:00", "meta": {"OBJECT_NAME": "STARLINK-36206", "OBJECT_ID": "2025-286F", "EPOCH": "2025-12-16T22:00:03.000096", "MEAN_MOTION": 15.87295916, "ECCENTRICITY": 6.59e-05, "INCLINATION": 53.1569, "RA_OF_ASC_NODE": 29.4599, "ARG_OF_PERICENTER": 85.6856, "MEAN_ANOMALY": 232.2522, "EPHEMERIS_TYPE": 0, "CLASSIFICATION_TYPE": "U", "NORAD_CAT_ID": 66930, "ELEMENT_SET_NO": 999, "REV_AT_EPOCH": 266, "BSTAR": -0.0050680992, "MEAN_MOTION_DOT": -0.01210783, "MEAN_MOTION_DDOT": 0}, "tle": {"line1": "1 66930U 25286F   25350.91670139 -.01210783  00000+0 -50681-2 0  9993", "line2": "2 66930  53.1569  29.4599 0000659  85.6856 232.2522 15.87295916  2666"}}, "geometry": {"type": "Point", "coordinates": [-154.39037602202114, 3.1740585518158797]}}, {"type": "Feature", "properties": {"norad_id": 66931, "name": "STARLINK-36130", "group": "last-30-days", "lat": 1.3846257469216745, "lon": -153.05021736315535, "alt_km": 312.82378443001653, "timestamp": "2025-12-17T04:57:43.205383+00:00", "meta": {"OBJECT_NAME": "STARLINK-36130", "OBJECT_ID": "2025-286G", "EPOCH": "2025-12-16T22:00:03.000096", "MEAN_MOTION": 15.87328094, "ECCENTRICITY": 6.814e-05, "INCLINATION": 53.1569, "RA_OF_ASC_NODE": 29.4555, "ARG_OF_PERICENTER": 76.3382, "MEAN_ANOMALY": 243.8053, "EPHEMERIS_TYPE": 0, "CLASSIFICATION_TYPE": "U", "NORAD_CAT_ID": 66931, "ELEMENT_SET_NO": 999, "REV_AT_EPOCH": 266, "BSTAR": -0.0050908954, "MEAN_MOTION_DOT": -0.01217382, "MEAN_MOTION_DDOT": 0}, "tle": {"line1": "1 66931U 25286G   25350.91670139 -.01217382  00000+0 -50909-2 0  9999", "line2": "2 66931  53.1569  29.4555 0000681  76.3382 243.8053 15.87328094  2666"}}, "geometry": {"type": "Point", "coordinates": [-153.05021736315535, 1.3846257469216745]}}, {"type": "Feature", "properties": {"norad_id": 66932, "name": "STARLINK-36177", "group": "last-30-days", "lat": -0.3618610740152702, "lon": -151.74506919517566, "alt_km": 312.922569359047, "timestamp": "2025-12-17T04:57:43.205393+00:00", "meta": {"OBJECT_NAME": "STARLINK-36177", "OBJECT_ID": "2025-286H", "EPOCH": "2025-12-16T22:00:03.000096", "MEAN_MOTION": 15.87363567, "ECCENTRICITY": 6.563e-05, "INCLINATION": 53.1569, "RA_OF_ASC_NODE": 29.4509, "ARG_OF_PERICENTER": 82.5589, "MEAN_ANOMALY": 239.733, "EPHEMERIS_TYPE": 0, "CLASSIFICATION_TYPE": "U", "NORAD_CAT_ID": 66932, "ELEMENT_SET_NO": 999, "REV_AT_EPOCH": 266, "BSTAR": -0.005115674, "MEAN_MOTION_DOT": -0.01224566, "MEAN_MOTION_DDOT": 0}, "tle": {"line1": "1 66932U 25286H   25350.91670139 -.01224566  00000+0 -51157-2 0  9998", "line2": "2 66932  53.1569  29.4509 0000656  82.5589 239.7330 15.87363567  2662"}}, "geometry": {"type": "Point", "coordinates": [-151.74506919517566, -0.3618610740152702]}}, {"type": "Feature", "properties": {"norad_id": 66933, "name": "STARLINK-36157", "group": "last-30-days", "lat": -2.0800398574556254, "lon": -150.4602315429987, "alt_km": 313.06934405449647, "timestamp": "2025-12-17T04:57:43.205402+00:00", "meta": {"OBJECT_NAME": "STARLINK-36157", "OBJECT_ID": "2025-286J", "EPOCH": "2025-12-16T22:00:03.000096", "MEAN_MOTION": 15.87393614, "ECCENTRICITY": 6.434e-05, "INCLINATION": 53.1569, "RA_OF_ASC_NODE": 29.4466, "ARG_OF_PERICENTER": 83.3313, "MEAN_ANOMALY": 241.0766, "EPHEMERIS_TYPE": 0, "CLASSIFICATION_TYPE": "U", "NORAD_CAT_ID": 66933, "ELEMENT_SET_NO": 999, "REV_AT_EPOCH": 266, "BSTAR": -0.0051033632, "MEAN_MOTION_DOT": -0.01223569, "MEAN_MOTION_DDOT": 0}, "tle": {"line1": "1 66933U 25286J   25350.91670139 -.01223569  00000+0 -51034-2 0  9995", "line2": "2 66933  53.1569  29.4466 0000643  83.3313 241.0766 15.87393614  2660"}}, "geometry": {"type": "Point", "coordinates": [-150.4602315429987, -2.0800398574556254]}}, {"type": "Feature", "properties": {"norad_id": 66934, "name": "STARLINK-36153", "group": "last-30-days", "lat": -3.812832917278506, "lon": -149.16125936820458, "alt_km": 313.2397931192236, "timestamp": "2025-12-17T04:57:43.205414+00:00", "meta": {"OBJECT_NAME": "STARLINK-36153", "OBJECT_ID": "2025-286K", "EPOCH": "2025-12-16T22:00:03.000096", "MEAN_MOTION": 15.87424276, "ECCENTRICITY": 6.116e-05, "INCLINATION": 53.1568, "RA_OF_ASC_NODE": 29.4418, "ARG_OF_PERICENTER": 81.4664, "MEAN_ANOMALY": 245.078, "EPHEMERIS_TYPE": 0, "CLASSIFICATION_TYPE": "U", "NORAD_CAT_ID": 66934, "ELEMENT_SET_NO": 999, "REV_AT_EPOCH": 266, "BSTAR": -0.005104786, "MEAN_MOTION_DOT": -0.01225524, "MEAN_MOTION_DDOT": 0}, "tle": {"line1": "1 66934U 25286K   25350.91670139 -.01225524  00000+0 -51048-2 0  9994", "line2": "2 66934  53.1568  29.4418 0000611  81.4664 245.0780 15.87424276  2669"}}, "geometry": {"type": "Point", "coordinates": [-149.16125936820458, -3.812832917278506]}}, {"type": "Feature", "properties": {"norad_id": 66935, "name": "STARLINK-36127", "group": "last-30-days", "lat": -5.754634854480048, "lon": -147.69683673854746, "alt_km": 313.3255953884054, "timestamp": "2025-12-17T04:57:43.205423+00:00", "meta": {"OBJECT_NAME": "STARLINK-36127", "OBJECT_ID": "2025-286L", "EPOCH": "2025-12-16T22:00:03.000096", "MEAN_MOTION": 15.87461432, "ECCENTRICITY": 6.309e-05, "INCLINATION": 53.1568, "RA_OF_ASC_NODE": 29.437, "ARG_OF_PERICENTER": 91.4231, "MEAN_ANOMALY": 237.5197, "EPHEMERIS_TYPE": 0, "CLASSIFICATION_TYPE": "U", "NORAD_CAT_ID": 66935, "ELEMENT_SET_NO": 999, "REV_AT_EPOCH": 266, "BSTAR": -0.0051662897, "MEAN_MOTION_DOT": -0.0124069, "MEAN_MOTION_DDOT": 0}, "tle": {"line1": "1 66935U 25286L   25350.91670139 -.01240690  00000+0 -51663-2 0  9999", "line2": "2 66935  53.1568  29.4370 0000630  91.4231 237.5197 15.87461432  2662"}}, "geometry": {"type": "Point", "coordinates": [-147.69683673854746, -5.754634854480048]}}]}